NORAD_CAT_ID,OBJECT_NAME,OBJECT_TYPE,EPOCH,MEAN_MOTION,ECCENTRICITY,INCLINATION,RA_OF_ASC_NODE,ARG_OF_PERICENTER,MEAN_ANOMALY,BSTAR,MEAN_MOTION_DOT,MEAN_MOTION_DDOT,TLE_LINE0,TLE_LINE1,TLE_LINE2,SEMIMAJOR_AXIS,PERIOD,APOGEE,PERIGEE,DECAYED
53971.0,STARLINK-4639,PAYLOAD,2023-11-23 10:06:41,15.08843743,0.0001944,53.2193,22.73,71.414,288.7063,0.00013199,1.813e-05,0.0,0 STARLINK-4639,1 53971U 22125H   23327.42131008  .00001813  00000-0  13199-3 0  9992,2 53971  53.2193  22.7300 0001944  71.4140 288.7063 15.08843743 62992,6917.869,95.437,541.079,538.389,0.0
53971.0,STARLINK-4639,PAYLOAD,2023-11-23 13:17:27,15.0885078,0.0001725,53.2187,22.1341,84.9202,275.1987,0.00026366,3.912e-05,0.0,0 STARLINK-4639,1 53971U 22125H   23327.55378589  .00003912  00000-0  26366-3 0  9995,2 53971  53.2187  22.1341 0001725  84.9202 275.1987 15.08850780 62948,6917.847,95.437,540.906,538.519,0.0
53971.0,STARLINK-4639,PAYLOAD,2023-11-24 03:35:56,15.08828131,0.0001719,53.2178,19.4537,95.4813,264.6375,-0.00022283,-3.832e-05,0.0,0 STARLINK-4639,1 53971U 22125H   23328.14995504 -.00003832  00000-0 -22283-3 0  9990,2 53971  53.2178  19.4537 0001719  95.4813 264.6375 15.08828131 63100,6917.917,95.438,540.971,538.592,0.0
53971.0,STARLINK-4639,PAYLOAD,2023-11-24 13:08:15,15.0883271,0.0001716,53.2174,17.6697,92.4404,267.6784,2.5345e-05,1.15e-06,0.0,0 STARLINK-4639,1 53971U 22125H   23328.54739830  .00000115  00000-0  25345-4 0  9994,2 53971  53.2174  17.6697 0001716  92.4404 267.6784 15.08832710 63096,6917.903,95.438,540.955,538.581,0.0
53971.0,STARLINK-4639,PAYLOAD,2023-11-25 03:26:43,15.08843593,0.0001743,53.2185,14.9931,111.4835,248.6343,0.00029223,4.366e-05,0.0,0 STARLINK-4639,1 53971U 22125H   23329.14355929  .00004366  00000-0  29223-3 0  9994,2 53971  53.2185  14.9931 0001743 111.4835 248.6343 15.08843593 63258,6917.869,95.437,540.94,538.529,0.0
53971.0,STARLINK-4639,PAYLOAD,2023-11-25 09:48:16,15.08862637,0.0001801,53.2182,13.8047,92.6303,267.4895,0.0012253,0.00019279,0.0,0 STARLINK-4639,1 53971U 22125H   23329.40851925  .00019279  00000-0  12253-2 0  9993,2 53971  53.2182  13.8047 0001801  92.6303 267.4895 15.08862637 63224,6917.811,95.436,540.922,538.43,0.0
53971.0,STARLINK-4639,PAYLOAD,2023-11-25 22:31:20,15.08869961,0.000203,53.2181,11.4295,105.3641,254.7575,0.00087781,0.00013721,0.0,0 STARLINK-4639,1 53971U 22125H   23329.93843200  .00013721  00000-0  87781-3 0  9993,2 53971  53.2181  11.4295 0002030 105.3641 254.7575 15.08869961 63371,6917.789,95.436,541.058,538.25,0.0
53971.0,STARLINK-4639,PAYLOAD,2023-11-26 09:39:02,15.08856202,0.0001551,53.2168,9.3424,105.2168,254.8996,0.00017461,2.493e-05,0.0,0 STARLINK-4639,1 53971U 22125H   23330.40210781  .00002493  00000-0  17461-3 0  9991,2 53971  53.2168   9.3424 0001551 105.2168 254.8996 15.08856202 63446,6917.831,95.437,540.769,538.623,0.0
53971.0,STARLINK-4639,PAYLOAD,2023-11-26 12:49:48,15.08854765,0.0001678,53.2169,8.7482,103.4398,256.6781,0.00013669,1.889e-05,0.0,0 STARLINK-4639,1 53971U 22125H   23330.53458733  .00001889  00000-0  13669-3 0  9990,2 53971  53.2169   8.7482 0001678 103.4398 256.6781 15.08854765 63397,6917.835,95.437,540.861,538.539,0.0
53971.0,STARLINK-4639,PAYLOAD,2023-11-27 03:08:19,15.08806926,0.0001354,53.2191,6.0783,52.5306,307.5809,-0.00053636,-8.806e-05,0.0,0 STARLINK-4639,1 53971U 22125H   23331.13077634 -.00008806  00000-0 -53636-3 0  9990,2 53971  53.2191   6.0783 0001354  52.5306 307.5809 15.08806926 63552,6917.981,95.44,540.783,538.91,0.0
53971.0,STARLINK-4639,PAYLOAD,2023-11-27 07:54:28,15.0880602,0.0001952,53.2191,5.1905,50.0364,310.0799,-0.00046165,-7.621e-05,0.0,0 STARLINK-4639,1 53971U 22125H   23331.32950143 -.00007621  00000-0 -46165-3 0  9999,2 53971  53.2191   5.1905 0001952  50.0364 310.0799 15.08806020 63517,6917.984,95.44,541.2,538.499,0.0
53971.0,STARLINK-4639,PAYLOAD,2023-11-28 02:59:05,15.08837472,0.0001872,53.216,1.6121,84.82,275.3005,0.0001332,1.832e-05,0.0,0 STARLINK-4639,1 53971U 22125H   23332.12437109  .00001832  00000-0  13320-3 0  9993,2 53971  53.2160   1.6121 0001872  84.8200 275.3005 15.08837472 63708,6917.888,95.438,541.048,538.458,0.0
53971.0,STARLINK-4639,PAYLOAD,2023-11-28 07:45:15,15.0883687,0.0002118,53.2174,0.7195,104.5367,255.586,0.00013395,1.844e-05,0.0,0 STARLINK-4639,1 53971U 22125H   23332.32309051  .00001844  00000-0  13395-3 0  9994,2 53971  53.2174   0.7195 0002118 104.5367 255.5860 15.08836870 63667,6917.89,95.438,541.22,538.29,0.0
53971.0,STARLINK-4639,PAYLOAD,2023-11-29 09:11:24,15.08849687,0.0001648,53.2176,355.964,95.1304,264.9876,0.00055867,8.617e-05,0.0,0 STARLINK-4639,1 53971U 22125H   23333.38292594  .00008617  00000-0  55867-3 0  9999,2 53971  53.2176 355.9640 0001648  95.1304 264.9876 15.08849687 63898,6917.851,95.437,540.856,538.576,0.0
53971.0,STARLINK-4639,PAYLOAD,2023-11-29 23:29:53,15.08847515,0.0001853,53.2181,353.2911,100.1235,259.9966,7.3718e-06,-1.71e-06,0.0,0 STARLINK-4639,1 53971U 22125H   23333.97908849 -.00000171  00000-0  73718-5 0  9996,2 53971  53.2181 353.2911 0001853 100.1235 259.9966 15.08847515 63986,6917.857,95.437,541.004,538.441,0.0
53971.0,STARLINK-4639,PAYLOAD,2023-12-01 00:56:03,15.08849128,0.0001955,53.2182,348.5305,121.3002,238.8182,-0.00013229,-2.394e-05,0.0,0 STARLINK-4639,1 53971U 22125H   23335.03892365 -.00002394  00000-0 -13229-3 0  9999,2 53971  53.2182 348.5305 0001955 121.3002 238.8182 15.08849128 64148,6917.852,95.437,541.07,538.365,0.0
53971.0,STARLINK-4639,PAYLOAD,2023-12-01 07:17:36,15.08835856,0.0001807,53.2179,347.342,89.2451,270.8748,0.00042765,6.524e-05,0.0,0 STARLINK-4639,1 53971U 22125H   23335.30389175  .00006524  00000-0  42765-3 0  9993,2 53971  53.2179 347.3420 0001807  89.2451 270.8748 15.08835856 64186,6917.893,95.438,541.008,538.508,0.0
53971.0,STARLINK-4639,PAYLOAD,2023-12-02 00:46:49,15.08851087,0.0001957,53.2164,344.0705,93.3951,266.7265,0.00029129,4.352e-05,0.0,0 STARLINK-4639,1 53971U 22125H   23336.03252312  .00004352  00000-0  29129-3 0  9992,2 53971  53.2164 344.0705 0001957  93.3951 266.7265 15.08851087 64291,6917.847,95.437,541.065,538.358,0.0
53971.0,STARLINK-4639,PAYLOAD,2023-12-02 07:08:21,15.08866759,0.000224,53.2179,342.8812,104.0766,256.0475,0.00061825,9.572e-05,0.0,0 STARLINK-4639,1 53971U 22125H   23336.29747627  .00009572  00000-0  61825-3 0  9996,2 53971  53.2179 342.8812 0002240 104.0766 256.0475 15.08866759 64334,6917.799,95.436,541.213,538.114,0.0
53971.0,STARLINK-4639,PAYLOAD,2023-12-03 03:48:24,15.08823771,0.0002157,53.2171,339.0016,125.2849,234.8345,-0.00032979,-5.531e-05,0.0,0 STARLINK-4639,1 53971U 22125H   23337.15861197 -.00005531  00000-0 -32979-3 0  9992,2 53971  53.2171 339.0016 0002157 125.2849 234.8345 15.08823771 64465,6917.93,95.439,541.287,538.303,0.0
53971.0,STARLINK-4639,PAYLOAD,2023-12-03 06:59:11,15.08809177,0.000218,53.2183,338.4213,103.2872,256.8364,-0.00050248,-8.27e-05,0.0,0 STARLINK-4639,1 53971U 22125H   23337.29110040 -.00008270  00000-0 -50248-3 0  9993,2 53971  53.2183 338.4213 0002180 103.2872 256.8364 15.08809177 64489,6917.975,95.44,541.348,538.331,0.0
53971.0,STARLINK-4639,PAYLOAD,2023-12-04 03:39:12,15.08825386,0.0001915,53.2172,334.5509,105.5673,254.5531,2.8226e-05,1.61e-06,0.0,0 STARLINK-4639,1 53971U 22125H   23338.15222768  .00000161  00000-0  28226-4 0  9991,2 53971  53.2172 334.5509 0001915 105.5673 254.5531 15.08825386 64617,6917.925,95.438,541.115,538.465,0.0
53971.0,STARLINK-4639,PAYLOAD,2023-12-04 06:49:59,15.08827677,0.0001859,53.2169,333.9518,104.0245,256.0954,0.00036597,5.539e-05,0.0,0 STARLINK-4639,1 53971U 22125H   23338.28471088  .00005539  00000-0  36597-3 0  9999,2 53971  53.2169 333.9518 0001859 104.0245 256.0954 15.08827677 64567,6917.918,95.438,541.069,538.497,0.0
53971.0,STARLINK-4639,PAYLOAD,2023-12-05 03:29:59,15.08863368,0.0001922,53.2174,330.0921,105.2163,254.9042,0.0010442,0.0001638,0.0,0 STARLINK-4639,1 53971U 22125H   23339.14582570  .00016380  00000-0  10442-2 0  9990,2 53971  53.2174 330.0921 0001922 105.2163 254.9042 15.08863368 64766,6917.809,95.436,541.004,538.344,0.0
53971.0,STARLINK-4639,PAYLOAD,2023-12-05 05:05:22,15.08875028,0.0001997,53.2175,329.7958,108.0105,252.1105,0.0011895,0.00018712,0.0,0 STARLINK-4639,1 53971U 22125H   23339.21206291  .00018712  00000-0  11895-2 0  9995,2 53971  53.2175 329.7958 0001997 108.0105 252.1105 15.08875028 64701,6917.773,95.435,541.02,538.257,0.0
53971.0,STARLINK-4639,PAYLOAD,2023-12-06 04:56:08,15.08867218,0.0002041,53.217,325.3332,103.7574,256.3645,0.00057868,8.94e-05,0.0,0 STARLINK-4639,1 53971U 22125H   23340.20565322  .00008940  00000-0  57868-3 0  9992,2 53971  53.2170 325.3332 0002041 103.7574 256.3645 15.08867218 64928,6917.797,95.436,541.074,538.25,0.0
53971.0,STARLINK-4639,PAYLOAD,2023-12-06 08:06:54,15.08843196,0.0002164,53.2178,324.7412,87.6299,272.4941,-0.00022315,-3.838e-05,0.0,0 STARLINK-4639,1 53971U 22125H   23340.33813493 -.00003838  00000-0 -22315-3 0  9993,2 53971  53.2178 324.7412 0002164  87.6299 272.4941 15.08843196 64947,6917.871,95.437,541.233,538.239,0.0
53971.0,STARLINK-4639,PAYLOAD,2023-12-07 06:22:18,15.08843484,0.0001827,53.2171,320.5771,113.8322,246.2862,0.00023922,3.522e-05,0.0,0 STARLINK-4639,1 53971U 22125H   23341.26549524  .00003522  00000-0  23922-3 0  9990,2 53971  53.2171 320.5771 0001827 113.8322 246.2862 15.08843484 65016,6917.87,95.437,540.999,538.471,0.0
53971.0,STARLINK-4639,PAYLOAD,2023-12-08 03:02:19,15.08836549,0.0001994,53.2171,316.7068,106.4687,253.6524,0.00014621,2.039e-05,0.0,0 STARLINK-4639,1 53971U 22125H   23342.12661983  .00002039  00000-0  14621-3 0  9998,2 53971  53.2171 316.7068 0001994 106.4687 253.6524 15.08836549 65212,6917.891,95.438,541.135,538.377,0.0
53971.0,STARLINK-4639,PAYLOAD,2023-12-08 06:13:06,15.08840596,0.0002067,53.2177,316.1151,83.219,276.9037,0.00016538,2.345e-05,0.0,0 STARLINK-4639,1 53971U 22125H   23342.25910163  .00002345  00000-0  16538-3 0  9998,2 53971  53.2177 316.1151 0002067  83.2190 276.9037 15.08840596 65166,6917.879,95.438,541.173,538.314,0.0
